NORAD_CAT_ID,OBJECT_NAME,OBJECT_TYPE,EPOCH,MEAN_MOTION,ECCENTRICITY,INCLINATION,RA_OF_ASC_NODE,ARG_OF_PERICENTER,MEAN_ANOMALY,BSTAR,MEAN_MOTION_DOT,MEAN_MOTION_DDOT,TLE_LINE0,TLE_LINE1,TLE_LINE2,SEMIMAJOR_AXIS,PERIOD,APOGEE,PERIGEE,DECAYED
50165.0,STARLINK-3298,PAYLOAD,2024-02-18 15:42:23,15.08846956,0.0001603,53.2187,26.1627,81.8655,278.2519,0.00015196,2.132e-05,0.0,0 STARLINK-3298,1 50165U 21125K   24049.65443644  .00002132  00000-0  15196-3 0  9996,2 50165  53.2187  26.1627 0001603  81.8655 278.2519 15.08846956120146,6917.859,95.437,540.833,538.615,0.0
50165.0,STARLINK-3298,PAYLOAD,2024-02-19 07:36:14,15.08850491,0.0001447,53.218,23.1813,98.2599,261.8557,0.00010926,1.452e-05,0.0,0 STARLINK-3298,1 50165U 21125K   24050.31683121  .00001452  00000-0  10926-3 0  9997,2 50165  53.2180  23.1813 0001447  98.2599 261.8557 15.08850491123375,6917.848,95.437,540.714,538.712,0.0
50165.0,STARLINK-3298,PAYLOAD,2024-02-19 15:33:10,15.08839674,0.0001371,53.2205,21.6981,100.5168,259.5979,1.5416e-05,-4.3e-07,0.0,0 STARLINK-3298,1 50165U 21125K   24050.64803714 -.00000043  00000-0  15416-4 0  9991,2 50165  53.2205  21.6981 0001371 100.5168 259.5979 15.08839674120297,6917.881,95.438,540.695,538.798,0.0
50165.0,STARLINK-3298,PAYLOAD,2024-02-19 21:54:43,15.08837063,0.0001902,53.2192,20.5099,93.3452,266.7757,-2.3632e-05,-6.64e-06,0.0,0 STARLINK-3298,1 50165U 21125K   24050.91300066 -.00000664  00000-0 -23632-4 0  9992,2 50165  53.2192  20.5099 0001902  93.3452 266.7757 15.08837063123461,6917.889,95.438,541.07,538.439,0.0
50165.0,STARLINK-3298,PAYLOAD,2024-02-20 04:16:15,15.08839696,0.0001718,53.2194,19.3199,101.3665,258.7521,1.4927e-05,-5.1e-07,0.0,0 STARLINK-3298,1 50165U 21125K   24051.17795947 -.00000051  00000-0  14927-4 0  9993,2 50165  53.2194  19.3199 0001718 101.3665 258.7521 15.08839696123500,6917.881,95.438,540.935,538.558,0.0
50165.0,STARLINK-3298,PAYLOAD,2024-02-20 21:45:30,15.08834922,0.0001436,53.2172,16.0491,102.2228,257.8925,8.3852e-05,1.047e-05,0.0,0 STARLINK-3298,1 50165U 21125K   24051.90660313  .00001047  00000-0  83852-4 0  9990,2 50165  53.2172  16.0491 0001436 102.2228 257.8925 15.08834922123614,6917.896,95.438,540.754,538.768,0.0
50165.0,STARLINK-3298,PAYLOAD,2024-02-21 04:07:02,15.0884013,0.0001411,53.2169,14.8611,96.7868,263.3285,0.00015529,2.184e-05,0.0,0 STARLINK-3298,1 50165U 21125K   24052.17156161  .00002184  00000-0  15529-3 0  9999,2 50165  53.2169  14.8611 0001411  96.7868 263.3285 15.08840130120526,6917.88,95.438,540.721,538.769,0.0
50165.0,STARLINK-3298,PAYLOAD,2024-02-22 13:30:08,15.08840728,0.0001406,53.218,8.6183,95.8622,264.253,6.7361e-05,7.84e-06,0.0,0 STARLINK-3298,1 50165U 21125K   24053.56260298  .00000784  00000-0  67361-4 0  9996,2 50165  53.2180   8.6183 0001406  95.8622 264.2530 15.08840728123862,6917.878,95.438,540.716,538.771,0.0
50165.0,STARLINK-3298,PAYLOAD,2024-02-23 13:20:55,15.08847832,0.0001447,53.2193,4.156,92.4,267.7158,0.00012841,1.757e-05,0.0,0 STARLINK-3298,1 50165U 21125K   24054.55619744  .00001757  00000-0  12841-3 0  9993,2 50165  53.2193   4.1560 0001447  92.4000 267.7158 15.08847832124019,6917.856,95.437,540.722,538.72,0.0
50165.0,STARLINK-3298,PAYLOAD,2024-02-24 02:04:01,15.08832785,0.0001957,53.2208,1.7844,117.2968,242.8223,-9.8424e-05,-1.854e-05,0.0,0 STARLINK-3298,1 50165U 21125K   24055.08612738 -.00001854  00000-0 -98424-4 0  9990,2 50165  53.2208   1.7844 0001957 117.2968 242.8223 15.08832785120967,6917.902,95.438,541.121,538.414,0.0
50165.0,STARLINK-3298,PAYLOAD,2024-02-24 13:11:43,15.08841705,0.0001412,53.2192,359.697,91.2529,268.8625,8.5374e-05,1.071e-05,0.0,0 STARLINK-3298,1 50165U 21125K   24055.54980705  .00001071  00000-0  85374-4 0  9992,2 50165  53.2192 359.6970 0001412  91.2529 268.8625 15.08841705124166,6917.875,95.437,540.717,538.763,0.0
50165.0,STARLINK-3298,PAYLOAD,2024-02-25 05:05:34,15.08848424,0.0001581,53.2194,356.7199,90.7511,269.3663,0.00011557,1.552e-05,0.0,0 STARLINK-3298,1 50165U 21125K   24056.21220139  .00001552  00000-0  11557-3 0  9990,2 50165  53.2194 356.7199 0001581  90.7511 269.3663 15.08848424121138,6917.855,95.437,540.813,538.626,0.0
50165.0,STARLINK-3298,PAYLOAD,2024-02-25 13:02:29,15.08844927,0.0001288,53.2186,355.2353,99.376,260.7378,0.00012237,1.66e-05,0.0,0 STARLINK-3298,1 50165U 21125K   24056.54340181  .00001660  00000-0  12237-3 0  9992,2 50165  53.2186 355.2353 0001288  99.3760 260.7378 15.08844927124315,6917.865,95.437,540.621,538.839,0.0
50165.0,STARLINK-3298,PAYLOAD,2024-02-26 04:56:20,15.08862106,0.0001548,53.2189,352.2615,97.513,262.6038,0.00048975,7.52e-05,0.0,0 STARLINK-3298,1 50165U 21125K   24057.20579673  .00007520  00000-0  48975-3 0  9995,2 50165  53.2189 352.2615 0001548  97.5130 262.6038 15.08862106124410,6917.813,95.436,540.749,538.607,0.0
50165.0,STARLINK-3298,PAYLOAD,2024-02-27 01:36:22,15.08837073,0.0001591,53.2189,348.3966,90.9407,269.1767,-0.00013156,-2.381e-05,0.0,0 STARLINK-3298,1 50165U 21125K   24058.06692782 -.00002381  00000-0 -13156-3 0  9992,2 50165  53.2189 348.3966 0001591  90.9407 269.1767 15.08837073121410,6917.889,95.438,540.855,538.654,0.0
50165.0,STARLINK-3298,PAYLOAD,2024-02-27 12:44:04,15.08833489,0.0001728,53.2196,346.3121,93.3933,266.7257,-2.2943e-05,-6.53e-06,0.0,0 STARLINK-3298,1 50165U 21125K   24058.53061192 -.00000653  00000-0 -22943-4 0  9994,2 50165  53.2196 346.3121 0001728  93.3933 266.7257 15.08833489124611,6917.9,95.438,540.961,538.57,0.0
50165.0,STARLINK-3298,PAYLOAD,2024-02-28 01:27:09,15.08841113,0.0001638,53.2185,343.9348,79.6355,280.4822,0.00016023,2.263e-05,0.0,0 STARLINK-3298,1 50165U 21125K   24059.06053226  .00002263  00000-0  16023-3 0  9990,2 50165  53.2185 343.9348 0001638  79.6355 280.4822 15.08841113124690,6917.877,95.437,540.875,538.609,0.0
50165.0,STARLINK-3298,PAYLOAD,2024-02-28 18:56:24,15.0884135,0.0001477,53.2181,340.668,67.615,292.4999,0.00035735,5.404e-05,0.0,0 STARLINK-3298,1 50165U 21125K   24059.78917462  .00005404  00000-0  35735-3 0  9991,2 50165  53.2181 340.6680 0001477  67.6150 292.4999 15.08841350121676,6917.876,95.437,540.763,538.719,0.0
50165.0,STARLINK-3298,PAYLOAD,2024-02-28 22:07:10,15.08844279,0.0001214,53.2175,340.0731,75.8408,284.2719,0.00027252,4.052e-05,0.0,0 STARLINK-3298,1 50165U 21125K   24059.92165248  .00004052  00000-0  27252-3 0  9997,2 50165  53.2175 340.0731 0001214  75.8408 284.2719 15.08844279124828,6917.867,95.437,540.572,538.892,0.0
50165.0,STARLINK-3298,PAYLOAD,2024-02-29 04:28:43,15.0885108,0.0001279,53.2173,338.8812,81.1584,278.9553,0.00042003,6.405e-05,0.0,0 STARLINK-3298,1 50165U 21125K   24060.18660968  .00006405  00000-0  42003-3 0  9991,2 50165  53.2173 338.8812 0001279  81.1584 278.9553 15.08851080124865,6917.847,95.437,540.596,538.827,0.0
50165.0,STARLINK-3298,PAYLOAD,2024-02-29 21:57:57,15.08838303,0.0001498,53.2179,335.6075,106.1684,253.9473,-2.2663e-05,-6.49e-06,0.0,0 STARLINK-3298,1 50165U 21125K   24060.91525213 -.00000649  00000-0 -22663-4 0  9992,2 50165  53.2179 335.6075 0001498 106.1684 253.9473 15.08838303124978,6917.886,95.438,540.787,538.714,0.0
50165.0,STARLINK-3298,PAYLOAD,2024-03-01 01:08:44,15.08840474,0.0001361,53.2177,335.0126,97.1981,262.9166,1.1445e-06,-2.7e-06,0.0,0 STARLINK-3298,1 50165U 21125K   24061.04773242 -.00000270  00000-0  11445-5 0  9990,2 50165  53.2177 335.0126 0001361  97.1981 262.9166 15.08840474121861,6917.879,95.438,540.685,538.802,0.0
50165.0,STARLINK-3298,PAYLOAD,2024-03-01 04:19:30,15.08842022,0.0001362,53.2177,334.4173,95.8735,264.2413,1.4688e-06,-2.65e-06,0.0,0 STARLINK-3298,1 50165U 21125K   24061.18021159 -.00000265  00000-0  14688-5 0  9994,2 50165  53.2177 334.4173 0001362  95.8735 264.2413 15.08842022125011,6917.874,95.437,540.681,538.797,0.0
50165.0,STARLINK-3298,PAYLOAD,2024-03-01 21:48:46,15.08809551,0.0001716,53.2182,331.1453,101.1271,258.9914,0.00102,0.00015969,0.0,0 STARLINK-3298,1 50165U 21125K   24061.90886827  .00015969  00000-0  10200-2 0  9994,2 50165  53.2182 331.1453 0001716 101.1271 258.9914 15.08809551125129,6917.973,95.439,541.026,538.651,0.0
50165.0,STARLINK-3298,PAYLOAD,2024-03-01 23:24:07,15.08844839,0.000136,53.2172,330.8479,100.9073,259.2072,6.464e-05,7.41e-06,0.0,0 STARLINK-3298,1 50165U 21125K   24061.97508939  .00000741  00000-0  64640-4 0  9997,2 50165  53.2172 330.8479 0001360 100.9073 259.2072 15.08844839125132,6917.866,95.437,540.671,538.79,0.0
50165.0,STARLINK-3298,PAYLOAD,2024-03-02 21:39:31,15.08841054,0.0001361,53.2165,326.6863,82.6484,277.4663,8.1962e-05,1.017e-05,0.0,0 STARLINK-3298,1 50165U 21125K   24062.90245174  .00001017  00000-0  81962-4 0  9993,2 50165  53.2165 326.6863 0001361  82.6484 277.4663 15.08841054125276,6917.877,95.437,540.684,538.801,0.0
50165.0,STARLINK-3298,PAYLOAD,2024-03-03 02:25:41,15.08845135,0.0001434,53.2173,325.7945,90.6958,269.4199,0.00013354,1.838e-05,0.0,0 STARLINK-3298,1 50165U 21125K   24063.10116923  .00001838  00000-0  13354-3 0  9995,2 50165  53.2173 325.7945 0001434  90.6958 269.4199 15.08845135122177,6917.865,95.437,540.722,538.738,0.0
50165.0,STARLINK-3298,PAYLOAD,2024-03-03 10:22:37,15.08837161,0.0001554,53.2189,324.3061,94.7618,265.3552,3.3567e-05,2.46e-06,0.0,0 STARLINK-3298,1 50165U 21125K   24063.43237385  .00000246  00000-0  33567-4 0  9998,2 50165  53.2189 324.3061 0001554  94.7618 265.3552 15.08837161122223,6917.889,95.438,540.829,538.679,0.0
50165.0,STARLINK-3298,PAYLOAD,2024-03-03 21:30:18,15.08850737,0.0001828,53.2186,322.2238,112.5253,247.5933,-5.1151e-05,-1.102e-05,0.0,0 STARLINK-3298,1 50165U 21125K   24063.89604764 -.00001102  00000-0 -51151-4 0  9990,2 50165  53.2186 322.2238 0001828 112.5253 247.5933 15.08850737125425,6917.848,95.437,540.977,538.448,0.0
50165.0,STARLINK-3298,PAYLOAD,2024-03-04 02:16:27,15.08857913,0.0001414,53.2173,321.3337,103.6559,256.4591,0.00030151,4.516e-05,0.0,0 STARLINK-3298,1 50165U 21125K   24064.09476232  .00004516  00000-0  30151-3 0  9996,2 50165  53.2173 321.3337 0001414 103.6559 256.4591 15.08857913122320,6917.826,95.436,540.669,538.712,0.0
